# METAR Report API

### Returns raw METAR data from aviationweather.gov from a ICAO code.

Usage: `https://metar.ryheff24.com?airport=<ICAO>`

Ex: `https://metar.ryheff24.com?airport=ksyr`

Response: `KSYR 291454Z 18010KT 10SM FEW200 SCT250 30/21 A3002 RMK AO2 SLP158 T03000206 58010`
